ONEWEB-0113             
1 48050U 21025J   21220.66667824  .00046908  00000-0  12770+0 0  9992
2 48050  87.8933 312.6909 0001833  86.4910  87.6288 13.13503796  3291
ONEWEB-0112             
1 48051U 21025K   21220.66667824  .00044606  00000-0  12161+0 0  9990
2 48051  87.8921 312.7657 0002274 102.0778 133.9982 13.13419628  3372
ONEWEB-0156             
1 48052U 21025L   21220.66667824  .00044373  00000-0  12437+0 0  9998
2 48052  87.8906 312.6863 0001621  98.9896 141.0499 13.11525300  3313
ONEWEB-0161             
1 48053U 21025M   21220.66667824  .00039731  00000-0  10839+0 0  9995
2 48053  87.8895 312.7776 0001792  94.0158 222.9035 13.13410191  3343
ONEWEB-0158             
1 48054U 21025N   21220.66667824  .00045776  00000-0  12481+0 0  9997
2 48054  87.8895 312.6167 0002063  82.1554  44.5640 13.13406480  3422
ONEWEB-0157             
1 48055U 21025P   21220.66667824  .00039392  00000-0  10735+0 0  9995
2 48055  87.8912 312.7279 0001377 114.5642 261.5428 13.13484969  3303
ONEWEB-0162             
1 48056U 21025Q   21220.66667824  .00046089  00000-0  12943+0 0  9990
2 48056  87.8935 312.5380 0002030 106.0877  99.2550 13.11379901  3290
ONEWEB-0155             
1 48057U 21025R   21220.66667824  .00043323  00000-0  11798+0 0  9996
2 48057  87.8879 312.7723 0001618  97.1355 347.2873 13.13506656  3298
ONEWEB-0149             
1 48058U 21025S   21220.66667824  .00039024  00000-0  10648+0 0  9993
2 48058  87.8840 312.7206 0002669 126.1427 230.7999 13.13402454  3323
ONEWEB-0148             
1 48059U 21025T   21220.66667824  .00047040  00000-0  12818+0 0  9992
2 48059  87.8894 312.6774 0002258 129.2170  36.8261 13.13438822  3320
ONEWEB-0160             
1 48060U 21025U   21220.66667824  .00000013  00000-0  00000-0 0  9994
2 48060  87.8868 312.5864 0002331 118.5414 317.2980 13.14537397  3306
ONEWEB-0163             
1 48061U 21025V   21220.66667824  .00000013  00000-0  00000-0 0  9995
2 48061  87.8978 312.7116 0001739 134.0132  24.7820 13.16445235  3306
ONEWEB-0159             
1 48062U 21025W   21220.66667824  .00045186  00000-0  12313+0 0  9995
2 48062  87.8894 312.6701 0001743 118.5365 107.4681 13.13450252  3400
ONEWEB-0164             
1 48063U 21025X   21220.66667824  .00040735  00000-0  11105+0 0  9999
2 48063  87.8894 312.6819 0001675  75.7525 219.8413 13.13450765  3339
ONEWEB-0167             
1 48064U 21025Y   21220.66667824 -.00050921  00000-0 -14631+0 0  9997
2 48064  87.8939 312.6553 0001854 102.7230  69.5353 13.10562711  3287
ONEWEB-0166             
1 48065U 21025Z   21220.66667824  .00040758  00000-0  11115+0 0  9997
2 48065  87.8904 312.7782 0002280 113.4870 293.1192 13.13427191  3290
ONEWEB-0151             
1 48066U 21025AA  21220.66667824  .00040146  00000-0  10947+0 0  9991
2 48066  87.8909 312.7112 0001540  78.4167 317.6821 13.13438706  3295
ONEWEB-0170             
1 48067U 21025AB  21220.66667824  .00039146  00000-0  10673+0 0  9996
2 48067  87.8944 312.6903 0001861  55.9201 309.8397 13.13454426  3284
ONEWEB-0168             
1 48068U 21025AC  21220.66667824  .00000013  00000-0  00000-0 0  9992
2 48068  87.9029 312.3399 0001748 131.0353 287.1090 13.17761264  3366
ONEWEB-0173             
1 48069U 21025AD  21220.66667824  .00045651  00000-0  99639-1 0  9997
2 48069  87.9557 312.5137 0000857 186.8828 265.2006 13.28407945  3392
ONEWEB-0171             
1 48070U 21025AE  21220.66667824  .00000013  00000-0  00000-0 0  9995
2 48070  87.8883 312.7203 0001550 121.5934 187.1187 13.11696738  3334
ONEWEB-0172             
1 48071U 21025AF  21220.66667824 -.00496315  00000-0 -28672+0 0  9996
2 48071  88.2224 310.5670 0008046 135.8483 313.8799 14.11690711  3486
ONEWEB-0174             
1 48072U 21025AG  21220.66667824  .00047709  00000-0  10418+0 0  9993
2 48072  87.9568 312.4507 0001014  98.5362  65.5382 13.28362238  3333
ONEWEB-0175             
1 48073U 21025AH  21220.66667824  .00039049  00000-0  10648+0 0  9997
2 48073  87.8927 312.7837 0001879  76.2467 269.7778 13.13445967  3320
ONEWEB-0177             
1 48074U 21025AJ  21220.66667824  .00044906  00000-0  12264+0 0  9992
2 48074  87.8867 312.7408 0000940 141.0686 141.2286 13.13300206  3346
ONEWEB-0178             
1 48075U 21025AK  21220.66667824  .00046259  00000-0  12599+0 0  9997
2 48075  87.8874 312.7810 0001818 100.5767 103.6294 13.13477733  3315
ONEWEB-0108             
1 48076U 21025AL  21220.66667824  .00000013  00000-0  00000-0 0  9991
2 48076  87.8972 312.7268 0002596  91.3180 289.8844 13.16924533  3329
ONEWEB-0169             
1 48077U 21025AM  21220.66667824  .00043896  00000-0  11979+0 0  9994
2 48077  87.8904 312.5822 0002336 107.2431 139.5679 13.13358416  3322
ONEWEB-0176             
1 48210U 21031A   21220.66667824  .00000014  00000-0  00000-0 0  9999
2 48210  87.8712 282.2345 0006148 302.8071 152.2868 13.48324397  3476
ONEWEB-0184             
1 48211U 21031B   21220.66667824  .00000014  00000-0  00000-0 0  9990
2 48211  87.9158 282.2606 0007223 277.1065 170.0494 13.50506242  3404
ONEWEB-0179             
1 48212U 21031C   21220.66667824  .00000014  00000-0  00000-0 0  9991
2 48212  87.8711 282.2872 0008227 309.0778 169.7333 13.46746065  3406
ONEWEB-0180             
1 48213U 21031D   21220.66667824  .00000014  00000-0  00000-0 0  9992
2 48213  87.8984 282.2533 0006460 287.6967 220.1221 13.40771466  3383
ONEWEB-0218             
1 48214U 21031E   21220.66667824  .00000014  00000-0  00000-0 0  9993
2 48214  87.8656 282.3053 0008864 261.7401 166.5095 13.50185723  3382
ONEWEB-0209             
1 48215U 21031F   21220.66667824  .00000014  00000-0  00000-0 0  9994
2 48215  87.8941 282.2967 0007233 275.8206  32.5108 13.55945586  3452
ONEWEB-0198             
1 48216U 21031G   21220.66667824  .00000015  00000-0  00000-0 0  9996
2 48216  88.0046 282.2671 0002745 278.1339  92.9733 13.76597930  3442
ONEWEB-0189             
1 48217U 21031H   21220.66667824  .00000013  00000-0  00000-0 0  9995
2 48217  87.9040 282.2532 0008808 278.1173 166.8664 13.36830914  3401
ONEWEB-0196             
1 48218U 21031J   21220.66667824  .00000014  00000-0  00000-0 0  9997
2 48218  87.8940 282.2175 0005105 294.0439 173.8333 13.43578179  3368
ONEWEB-0183             
1 48219U 21031K   21220.66667824  .00000014  00000-0  00000-0 0  9998
2 48219  87.8616 282.2591 0004440 289.5528 301.3938 13.52738255  3430
ONEWEB-0185             
1 48220U 21031L   21220.58335648  .00000014  00000-0  00000+0 0  9996
2 48220  87.9052 282.2723 0007082 281.8956 257.5804 13.41437119 15215
ONEWEB-0187             
1 48221U 21031M   21220.58335648  .00000014  00000-0  00000+0 0  9997
2 48221  87.8936 282.2870 0007169 303.3856 311.3720 13.43586380 15228
ONEWEB-0192             
1 48222U 21031N   21220.58335648  .00000014  00000-0  00000+0 0  9998
2 48222  87.9243 282.2443 0006170 285.8788  71.7017 13.38812174 15140
ONEWEB-0219             
1 48223U 21031P   21220.58335648  .00000014  00000-0  00000+0 0  9999
2 48223  87.8735 282.3213 0007950 255.8198 116.5661 13.55003418 15337
ONEWEB-0202             
1 48224U 21031Q   21220.58335648  .00000014  00000-0  00000+0 0  9990
2 48224  87.8594 282.2966 0008557 278.2943 164.3653 13.57340924 15303
ONEWEB-0204             
1 48225U 21031R   21220.58335648  .00000014  00000-0  00000+0 0  9991
2 48225  87.8925 282.2861 0004766 288.9179 327.4590 13.41275964 15231
ONEWEB-0205             
1 48226U 21031S   21220.58335648  .00000014  00000-0  00000+0 0  9992
2 48226  87.9124 282.2860 0009557 277.7576 336.5519 13.50826228 15229
ONEWEB-0206             
1 48227U 21031T   21220.58335648  .00000014  00000-0  00000+0 0  9993
2 48227  87.9442 282.2620 0006454 292.0378 209.8434 13.46046918 15177
ONEWEB-0182             
1 48228U 21031U   21220.58335648  .00000015  00000-0  00000+0 0  9995
2 48228  87.8815 282.3582 0004792 292.8573 230.8894 13.62513700 15379
ONEWEB-0186             
1 48229U 21031V   21220.58335648  .00000014  00000-0  00000+0 0  9995
2 48229  87.8893 282.3338 0006394 262.7983 133.6741 13.56934955 15335
ONEWEB-0181             
1 48230U 21031W   21220.58335648  .00000014  00000-0  00000+0 0  9997
2 48230  87.9009 282.2241 0007231 285.4847 149.6828 13.50792366 15190
ONEWEB-0188             
1 48231U 21031X   21220.58335648  .00000013  00000-0  00000+0 0  9997
2 48231  87.9467 282.2623 0005374 293.7488 127.9741 13.30109333 15111
ONEWEB-0220             
1 48232U 21031Y   21220.58335648  .00000015  00000-0  00000+0 0  9990
2 48232  87.9144 282.3301 0007643 257.8467 266.4846 13.63561743 15340
ONEWEB-0165             
1 48233U 21031Z   21220.58335648  .00000014  00000-0  00000+0 0  9990
2 48233  87.8950 282.3284 0007436 290.5961 124.4725 13.55091008 15317
ONEWEB-0199             
1 48234U 21031AA  21220.58335648  .00000014  00000-0  00000+0 0  9991
2 48234  87.8836 282.2868 0004748 286.5082  53.2873 13.41302872 15222
ONEWEB-0203             
1 48235U 21031AB  21220.58335648  .00000014  00000-0  00000+0 0  9992
2 48235  87.9566 282.2049 0009115 285.6427  77.3717 13.59321374 15200
ONEWEB-0197             
1 48236U 21031AC  21220.58335648  .00000013  00000-0  00000+0 0  9992
2 48236  87.9212 282.2659 0005980 307.8744 174.4625 13.34578487 15154
ONEWEB-0194             
1 48237U 21031AD  21220.58335648  .00000014  00000-0  00000+0 0  9994
2 48237  87.8917 282.3346 0005708 286.3896  62.0938 13.56841564 15306
ONEWEB-0193             
1 48238U 21031AE  21220.58335648  .00000014  00000-0  00000+0 0  9995
2 48238  87.9059 282.3135 0006056 260.0922 239.3781 13.52130125 15256
ONEWEB-0191             
1 48239U 21031AF  21220.58335648  .00000013  00000-0  00000+0 0  9995
2 48239  87.9371 282.2674 0007717 301.7096 119.2883 13.32010577 15133
ONEWEB-0195             
1 48240U 21031AG  21220.58335648  .00000013  00000-0  00000+0 0  9997
2 48240  87.9320 282.2490 0005008 278.6892 238.5859 13.31387406 15115
